{"type": "FeatureCollection", "features": [ {"type": "Feature", "properties": {"norad_id": 30320, "name": "FENGYUN 1C DEB", "group": "fengyun-1c-debris", "lat": -59.83310964231787, "lon": 74.34553140307216, "alt_km": 856.9002391461172, "timestamp": "2025-12-24T20:42:21.302152+00:00", "meta": {"OBJECT_NAME": "FENGYUN 1C DEB", "OBJECT_ID": "1999-025AAH", "EPOCH": "2025-12-24T03:54:59.173632", "MEAN_MOTION": 13.98561335, "ECCENTRICITY": 0.00847965, "INCLINATION": 99.1859, "RA_OF_ASC_NODE": 57.4807, "ARG_OF_PERICENTER": 263.0362, "MEAN_ANOMALY": 115.0401, "EPHEMERIS_TYPE": 0, "CLASSIFICATION_TYPE": "U", "NORAD_CAT_ID": 30320, "ELEMENT_SET_NO": 999, "REV_AT_EPOCH": 96567, "BSTAR": 0.00028641027, "MEAN_MOTION_DOT": 3.78e-06, "MEAN_MOTION_DDOT": 0}, "tle": {"line1": "1 30320U 99025AAH 25358.16318488  .00000378  00000+0  28641-3 0  9996", "line2": "2 30320  99.1859  57.4807 0084796 263.0362 115.0401 13.98561335965677"}}, "geometry": {"type": "Point", "coordinates": [74.34553140307216, -59.83310964231787]}}, {"type": "Feature", "properties": {"norad_id": 30321, "name": "FENGYUN 1C DEB", "group": "fengyun-1c-debris", "lat": 57.32860325383931, "lon": -16.172822709795362, "alt_km": 865.9221433298235, "timestamp": "2025-12-24T20:42:21.302162+00:00", "meta": {"OBJECT_NAME": "FENGYUN 1C DEB", "OBJECT_ID": "1999-025AAJ", "EPOCH": "2025-12-23T22:28:53.567904", "MEAN_MOTION": 14.16653747, "ECCENTRICITY": 0.0060348, "INCLINATION": 98.6564, "RA_OF_ASC_NODE": 356.6686, "ARG_OF_PERICENTER": 204.2925, "MEAN_ANOMALY": 174.5733, "EPHEMERIS_TYPE": 0, "CLASSIFICATION_TYPE": "U", "NORAD_CAT_ID": 30321, "ELEMENT_SET_NO": 999, "REV_AT_EPOCH": 97702, "BSTAR": 0.00026003, "MEAN_MOTION_DOT": 4.86e-06, "MEAN_MOTION_DDOT": 0}, "tle": {"line1": "1 30321U 99025AAJ 25357.93673111  .00000486  00000+0  26003-3 0  9998", "line2": "2 30321  98.6564 356.6686 0060348 204.2925 174.5733 14.16653747977023"}}, "geometry": {"type": "Point", "coordinates": [-16.172822709795362, 57.32860325383931]}}, {"type": "Feature", "properties": {"norad_id": 30322, "name": "FENGYUN 1C DEB", "group": "fengyun-1c-debris", "lat": -27.193839031024307, "lon": -139.96265412663786, "alt_km": 914.7602246991246, "timestamp": "2025-12-24T20:42:21.302172+00:00", "meta": {"OBJECT_NAME": "FENGYUN 1C DEB", "OBJECT_ID": "1999-025AAK", "EPOCH": "2025-12-24T03:45:38.773728", "MEAN_MOTION": 14.06144574, "ECCENTRICITY": 0.01264049, "INCLINATION": 98.3986, "RA_OF_ASC_NODE": 215.0289, "ARG_OF_PERICENTER": 220.4847, "MEAN_ANOMALY": 138.6866, "EPHEMERIS_TYPE": 0, "CLASSIFICATION_TYPE": "U", "NORAD_CAT_ID": 30322, "ELEMENT_SET_NO": 999, "REV_AT_EPOCH": 96360, "BSTAR": 0.001043501, "MEAN_MOTION_DOT": 1.804e-05, "MEAN_MOTION_DDOT": 0}, "tle": {"line1": "1 30322U 99025AAK 25358.15669877  .00001804  00000+0  10435-2 0  9994", "line2": "2 30322  98.3986 215.0289 0126404 220.4847 138.6866 14.06144574963604"}}, "geometry": {"type": "Point", "coordinates": [-139.96265412663786, -27.193839031024307]}}, {"type": "Feature", "properties": {"norad_id": 30325, "name": "FENGYUN 1C DEB", "group": "fengyun-1c-debris", "lat": 47.87169355826923, "lon": -152.37749673077704, "alt_km": 857.301984245064, "timestamp": "2025-12-24T20:42:21.302182+00:00", "meta": {"OBJECT_NAME": "FENGYUN 1C DEB", "OBJECT_ID": "1999-025AAL", "EPOCH": "2025-12-23T18:31:16.264128", "MEAN_MOTION": 14.09107979, "ECCENTRICITY": 0.00155616, "INCLINATION": 98.7322, "RA_OF_ASC_NODE": 16.7817, "ARG_OF_PERICENTER": 220.3959, "MEAN_ANOMALY": 139.6057, "EPHEMERIS_TYPE": 0, "CLASSIFICATION_TYPE": "U", "NORAD_CAT_ID": 30325, "ELEMENT_SET_NO": 999, "REV_AT_EPOCH": 97171, "BSTAR": 0.00014655586, "MEAN_MOTION_DOT": 2.12e-06, "MEAN_MOTION_DDOT": 0}, "tle": {"line1": "1 30325U 99025AAL 25357.77171602  .00000212  00000+0  14656-3 0  9990", "line2": "2 30325  98.7322  16.7817 0015561 220.3959 139.6057 14.09107979971717"}}, "geometry": {"type": "Point", "coordinates": [-152.37749673077704, 47.87169355826923]}}, {"type": "Feature", "properties": {"norad_id": 30326, "name": "FENGYUN 1C DEB", "group": "fengyun-1c-debris", "lat": 70.36972120159601, "lon": 90.53324982186972, "alt_km": 971.9460070935475, "timestamp": "2025-12-24T20:42:21.302192+00:00", "meta": {"OBJECT_NAME": "FENGYUN 1C DEB", "OBJECT_ID": "1999-025AAM", "EPOCH": "2025-12-24T02:51:48.715776", "MEAN_MOTION": 13.85480558, "ECCENTRICITY": 0.01419347, "INCLINATION": 98.6538, "RA_OF_ASC_NODE": 244.5714, "ARG_OF_PERICENTER": 359.6602, "MEAN_ANOMALY": 0.4437, "EPHEMERIS_TYPE": 0, "CLASSIFICATION_TYPE": "U", "NORAD_CAT_ID": 30326, "ELEMENT_SET_NO": 999, "REV_AT_EPOCH": 95613, "BSTAR": 0.00019068417, "MEAN_MOTION_DOT": 1.95e-06, "MEAN_MOTION_DDOT": 0}, "tle": {"line1": "1 30326U 99025AAM 25358.11931384  .00000195  00000+0  19068-3 0  9993", "line2": "2 30326  98.6538 244.5714 0141934 359.6602   0.4437 13.85480558956134"}}, "geometry": {"type": "Point", "coordinates": [90.53324982186972, 70.36972120159601]}}, {"type": "Feature", "properties": {"norad_id": 30327, "name": "FENGYUN 1C DEB", "group": "fengyun-1c-debris", "lat": -44.19769498353328, "lon": -99.10844646149658, "alt_km": 913.5849987652045, "timestamp": "2025-12-24T20:42:21.302202+00:00", "meta": {"OBJECT_NAME": "FENGYUN 1C DEB", "OBJECT_ID": "1999-025AAN", "EPOCH": "2025-12-24T06:16:21.961920", "MEAN_MOTION": 14.18061348, "ECCENTRICITY": 0.01178357, "INCLINATION": 98.4442, "RA_OF_ASC_NODE": 252.0141, "ARG_OF_PERICENTER": 109.3313, "MEAN_ANOMALY": 18.2495, "EPHEMERIS_TYPE": 0, "CLASSIFICATION_TYPE": "U", "NORAD_CAT_ID": 30327, "ELEMENT_SET_NO": 999, "REV_AT_EPOCH": 96606, "BSTAR": 0.001700597, "MEAN_MOTION_DOT": 3.695e-05, "MEAN_MOTION_DDOT": 0}, "tle": {"line1": "1 30327U 99025AAN 25358.26136530  .00003695  00000+0  17006-2 0  9997", "line2": "2 30327  98.4442 252.0141 0117835 109.3313  18.2495 14.18061348966060"}}, "geometry": {"type": "Point", "coordinates": [-99.10844646149658, -44.19769498353328]}}, {"type": "Feature", "properties": {"norad_id": 30328, "name": "FENGYUN 1C DEB", "group": "fengyun-1c-debris", "lat": -49.06823326263397, "lon": 178.45883380461268, "alt_km": 859.1035360483593, "timestamp": "2025-12-24T20:42:21.302212+00:00", "meta": {"OBJECT_NAME": "FENGYUN 1C DEB", "OBJECT_ID": "1999-025AAP", "EPOCH": "2025-12-24T06:18:20.155392", "MEAN_MOTION": 14.12479235, "ECCENTRICITY": 0.0006226, "INCLINATION": 98.6861, "RA_OF_ASC_NODE": 8.0304, "ARG_OF_PERICENTER": 123.5666, "MEAN_ANOMALY": 296.8111, "EPHEMERIS_TYPE": 0, "CLASSIFICATION_TYPE": "U", "NORAD_CAT_ID": 30328, "ELEMENT_SET_NO": 999, "REV_AT_EPOCH": 97427, "BSTAR": 0.00013208099, "MEAN_MOTION_DOT": 2.01e-06, "MEAN_MOTION_DDOT": 0}, "tle": {"line1": "1 30328U 99025AAP 25358.26273328  .00000201  00000+0  13208-3 0  9996", "line2": "2 30328  98.6861   8.0304 0006226 123.5666 296.8111 14.12479235974271"}}, "geometry": {"type": "Point", "coordinates": [178.45883380461268, -49.06823326263397]}}, {"type": "Feature", "properties": {"norad_id": 30329, "name": "FENGYUN 1C DEB", "group": "fengyun-1c-debris", "lat": -59.120707746164726, "lon": 82.28205914310055, "alt_km": 1002.4257317156853, "timestamp": "2025-12-24T20:42:21.302222+00:00", "meta": {"OBJECT_NAME": "FENGYUN 1C DEB", "OBJECT_ID": "1999-025AAQ", "EPOCH": "2025-12-24T00:48:11.181600", "MEAN_MOTION": 13.86753926, "ECCENTRICITY": 0.01420897, "INCLINATION": 99.2635, "RA_OF_ASC_NODE": 277.2987, "ARG_OF_PERICENTER": 5.4067, "MEAN_ANOMALY": 58.4969, "EPHEMERIS_TYPE": 0, "CLASSIFICATION_TYPE": "U", "NORAD_CAT_ID": 30329, "ELEMENT_SET_NO": 999, "REV_AT_EPOCH": 95567, "BSTAR": 0.00046291338, "MEAN_MOTION_DOT": 5.4e-06, "MEAN_MOTION_DDOT": 0}, "tle": {"line1": "1 30329U 99025AAQ 25358.03346275  .00000540  00000+0  46291-3 0  9998", "line2": "2 30329  99.2635 277.2987 0142089   5.4067  58.4969 13.86753926955674"}}, "geometry": {"type": "Point", "coordinates": [82.28205914310055, -59.120707746164726]}}, {"type": "Feature", "properties": {"norad_id": 30330, "name": "FENGYUN 1C DEB", "group": "fengyun-1c-debris", "lat": 68.79209454101468, "lon": -33.248777491249704, "alt_km": 926.5615808812372, "timestamp": "2025-12-24T20:42:21.302232+00:00", "meta": {"OBJECT_NAME": "FENGYUN 1C DEB", "OBJECT_ID": "1999-025AAR", "EPOCH": "2025-12-24T06:32:51.407808", "MEAN_MOTION": 13.82092044, "ECCENTRICITY": 0.01877942, "INCLINATION": 98.8865, "RA_OF_ASC_NODE": 349.9725, "ARG_OF_PERICENTER": 153.6629, "MEAN_ANOMALY": 225.5367, "EPHEMERIS_TYPE": 0, "CLASSIFICATION_TYPE": "U", "NORAD_CAT_ID": 30330, "ELEMENT_SET_NO": 999, "REV_AT_EPOCH": 94817, "BSTAR": 0.0011406507, "MEAN_MOTION_DOT": 1.364e-05, "MEAN_MOTION_DDOT": 0}, "tle": {"line1": "1 30330U 99025AAR 25358.27281722  .00001364  00000+0  11407-2 0  9996", "line2": "2 30330  98.8865 349.9725 0187794 153.6629 225.5367 13.82092044948174"}}, "geometry": {"type": "Point", "coordinates": [-33.248777491249704, 68.79209454101468]}}, {"type": "Feature", "properties": {"norad_id": 30331, "name": "FENGYUN 1C DEB", "group": "fengyun-1c-debris", "lat": -80.896211410827, "lon": 133.40141180021737, "alt_km": 879.9256865714951, "timestamp": "2025-12-24T20:42:21.302264+00:00", "meta": {"OBJECT_NAME": "FENGYUN 1C DEB", "OBJECT_ID": "1999-025AAS", "EPOCH": "2025-12-24T02:32:14.632224", "MEAN_MOTION": 13.97844023, "ECCENTRICITY": 0.00958832, "INCLINATION": 98.9551, "RA_OF_ASC_NODE": 32.4031, "ARG_OF_PERICENTER": 336.728, "MEAN_ANOMALY": 85.2283, "EPHEMERIS_TYPE": 0, "CLASSIFICATION_TYPE": "U", "NORAD_CAT_ID": 30331, "ELEMENT_SET_NO": 999, "REV_AT_EPOCH": 96278, "BSTAR": 0.00054521588, "MEAN_MOTION_DOT": 7.59e-06, "MEAN_MOTION_DDOT": 0}, "tle": {"line1": "1 30331U 99025AAS 25358.10572491  .00000759  00000+0  54522-3 0  9998", "line2": "2 30331  98.9551  32.4031 0095883 336.7280  85.2283 13.97844023962785"}}, "geometry": {"type": "Point", "coordinates": [133.40141180021737, -80.896211410827]}}]}